ORBCOMM FM05            
1 25117U 97084F   25029.23861000  .00003848  00000+0  11311-2 0  9993
2 25117  45.0156 314.8110 0001828 275.4973  84.5670 14.45067650420502
ORBCOMM FM06            
1 25118U 97084G   25029.55380242  .00003708  00000+0  10877-2 0  9994
2 25118  45.0148 313.2025 0001301 309.2696 221.2382 14.45237756421468
ORBCOMM FM07            
1 25119U 97084H   25029.18595539  .00004245  00000+0  12412-2 0  9995
2 25119  45.0144 315.7083 0002204 256.1957 103.8649 14.45158417421400
ORBCOMM FM03            
1 25158U 98007B   25029.39945262  .00002541  00000+0  94657-3 0  9998
2 25158 107.9687 210.5932 0044184 133.9624 226.5172 14.33919806404144
ORBCOMM FM04            
1 25159U 98007C   25029.54792102  .00002602  00000+0  96510-3 0  9997
2 25159 107.9675 214.0243 0039786 131.2650 229.1927 14.34184904404341
ORBCOMM FM17            
1 25413U 98046A   25029.56739836  .00002325  00000+0  86485-3 0  9992
2 25413  44.9921 191.5998 0003276 218.0695 141.9921 14.34583791383261
ORBCOMM FM18            
1 25414U 98046B   25029.42849008  .00003136  00000+0  10767-2 0  9991
2 25414  44.9925 113.2672 0006034 282.3457  77.6715 14.37845650384277
ORBCOMM FM19            
1 25415U 98046C   25029.59306094  .00002935  00000+0  10144-2 0  9998
2 25415  44.9936 114.2690 0005052 273.1603 231.2668 14.37658197384252
