<?xml version="1.0" encoding="UTF-8"?>
<ndm xmlns:xsi="http://www.w3.org/2001/XMLSchema-instance" xsi:noNamespaceSchemaLocation="https://sanaregistry.org/r/ndmxml_unqualified/ndmxml-2.0.0-master-2.0.xsd">
<omm id="CCSDS_OMM_VERS" version="2.0">
<header><CREATION_DATE/><ORIGINATOR/></header><body><segment><metadata><OBJECT_NAME>ORBCOMM FM05</OBJECT_NAME><OBJECT_ID>1997-084F</OBJECT_ID><CENTER_NAME>EARTH</CENTER_NAME><REF_FRAME>TEME</REF_FRAME><TIME_SYSTEM>UTC</TIME_SYSTEM><MEAN_ELEMENT_THEORY>SGP4</MEAN_ELEMENT_THEORY></metadata><data><meanElements><EPOCH>2025-01-29T05:43:35.904000</EPOCH><MEAN_MOTION>14.45067650</MEAN_MOTION><ECCENTRICITY>.0001828</ECCENTRICITY><INCLINATION>45.0156</INCLINATION><RA_OF_ASC_NODE>314.8110</RA_OF_ASC_NODE><ARG_OF_PERICENTER>275.4973</ARG_OF_PERICENTER><MEAN_ANOMALY>84.5670</MEAN_ANOMALY></meanElements><tleParameters><EPHEMERIS_TYPE>0</EPHEMERIS_TYPE><CLASSIFICATION_TYPE>U</CLASSIFICATION_TYPE><NORAD_CAT_ID>25117</NORAD_CAT_ID><ELEMENT_SET_NO>999</ELEMENT_SET_NO><REV_AT_EPOCH>42050</REV_AT_EPOCH><BSTAR>.11311E-2</BSTAR><MEAN_MOTION_DOT>.3848E-4</MEAN_MOTION_DOT><MEAN_MOTION_DDOT>0</MEAN_MOTION_DDOT></tleParameters></data></segment></body></omm>
<omm id="CCSDS_OMM_VERS" version="2.0">
<header><CREATION_DATE/><ORIGINATOR/></header><body><segment><metadata><OBJECT_NAME>ORBCOMM FM06</OBJECT_NAME><OBJECT_ID>1997-084G</OBJECT_ID><CENTER_NAME>EARTH</CENTER_NAME><REF_FRAME>TEME</REF_FRAME><TIME_SYSTEM>UTC</TIME_SYSTEM><MEAN_ELEMENT_THEORY>SGP4</MEAN_ELEMENT_THEORY></metadata><data><meanElements><EPOCH>2025-01-29T13:17:28.529088</EPOCH><MEAN_MOTION>14.45237756</MEAN_MOTION><ECCENTRICITY>.0001301</ECCENTRICITY><INCLINATION>45.0148</INCLINATION><RA_OF_ASC_NODE>313.2025</RA_OF_ASC_NODE><ARG_OF_PERICENTER>309.2696</ARG_OF_PERICENTER><MEAN_ANOMALY>221.2382</MEAN_ANOMALY></meanElements><tleParameters><EPHEMERIS_TYPE>0</EPHEMERIS_TYPE><CLASSIFICATION_TYPE>U</CLASSIFICATION_TYPE><NORAD_CAT_ID>25118</NORAD_CAT_ID><ELEMENT_SET_NO>999</ELEMENT_SET_NO><REV_AT_EPOCH>42146</REV_AT_EPOCH><BSTAR>.10877E-2</BSTAR><MEAN_MOTION_DOT>.3708E-4</MEAN_MOTION_DOT><MEAN_MOTION_DDOT>0</MEAN_MOTION_DDOT></tleParameters></data></segment></body></omm>
<omm id="CCSDS_OMM_VERS" version="2.0">
<header><CREATION_DATE/><ORIGINATOR/></header><body><segment><metadata><OBJECT_NAME>ORBCOMM FM07</OBJECT_NAME><OBJECT_ID>1997-084H</OBJECT_ID><CENTER_NAME>EARTH</CENTER_NAME><REF_FRAME>TEME</REF_FRAME><TIME_SYSTEM>UTC</TIME_SYSTEM><MEAN_ELEMENT_THEORY>SGP4</MEAN_ELEMENT_THEORY></metadata><data><meanElements><EPOCH>2025-01-29T04:27:46.545696</EPOCH><MEAN_MOTION>14.45158417</MEAN_MOTION><ECCENTRICITY>.0002204</ECCENTRICITY><INCLINATION>45.0144</INCLINATION><RA_OF_ASC_NODE>315.7083</RA_OF_ASC_NODE><ARG_OF_PERICENTER>256.1957</ARG_OF_PERICENTER><MEAN_ANOMALY>103.8649</MEAN_ANOMALY></meanElements><tleParameters><EPHEMERIS_TYPE>0</EPHEMERIS_TYPE><CLASSIFICATION_TYPE>U</CLASSIFICATION_TYPE><NORAD_CAT_ID>25119</NORAD_CAT_ID><ELEMENT_SET_NO>999</ELEMENT_SET_NO><REV_AT_EPOCH>42140</REV_AT_EPOCH><BSTAR>.12412E-2</BSTAR><MEAN_MOTION_DOT>.4245E-4</MEAN_MOTION_DOT><MEAN_MOTION_DDOT>0</MEAN_MOTION_DDOT></tleParameters></data></segment></body></omm>
<omm id="CCSDS_OMM_VERS" version="2.0">
<header><CREATION_DATE/><ORIGINATOR/></header><body><segment><metadata><OBJECT_NAME>ORBCOMM FM03</OBJECT_NAME><OBJECT_ID>1998-007B</OBJECT_ID><CENTER_NAME>EARTH</CENTER_NAME><REF_FRAME>TEME</REF_FRAME><TIME_SYSTEM>UTC</TIME_SYSTEM><MEAN_ELEMENT_THEORY>SGP4</MEAN_ELEMENT_THEORY></metadata><data><meanElements><EPOCH>2025-01-29T09:35:12.706368</EPOCH><MEAN_MOTION>14.33919806</MEAN_MOTION><ECCENTRICITY>.0044184</ECCENTRICITY><INCLINATION>107.9687</INCLINATION><RA_OF_ASC_NODE>210.5932</RA_OF_ASC_NODE><ARG_OF_PERICENTER>133.9624</ARG_OF_PERICENTER><MEAN_ANOMALY>226.5172</MEAN_ANOMALY></meanElements><tleParameters><EPHEMERIS_TYPE>0</EPHEMERIS_TYPE><CLASSIFICATION_TYPE>U</CLASSIFICATION_TYPE><NORAD_CAT_ID>25158</NORAD_CAT_ID><ELEMENT_SET_NO>999</ELEMENT_SET_NO><REV_AT_EPOCH>40414</REV_AT_EPOCH><BSTAR>.94657E-3</BSTAR><MEAN_MOTION_DOT>.2541E-4</MEAN_MOTION_DOT><MEAN_MOTION_DDOT>0</MEAN_MOTION_DDOT></tleParameters></data></segment></body></omm>
<omm id="CCSDS_OMM_VERS" version="2.0">
<header><CREATION_DATE/><ORIGINATOR/></header><body><segment><metadata><OBJECT_NAME>ORBCOMM FM04</OBJECT_NAME><OBJECT_ID>1998-007C</OBJECT_ID><CENTER_NAME>EARTH</CENTER_NAME><REF_FRAME>TEME</REF_FRAME><TIME_SYSTEM>UTC</TIME_SYSTEM><MEAN_ELEMENT_THEORY>SGP4</MEAN_ELEMENT_THEORY></metadata><data><meanElements><EPOCH>2025-01-29T13:09:00.376128</EPOCH><MEAN_MOTION>14.34184904</MEAN_MOTION><ECCENTRICITY>.0039786</ECCENTRICITY><INCLINATION>107.9675</INCLINATION><RA_OF_ASC_NODE>214.0243</RA_OF_ASC_NODE><ARG_OF_PERICENTER>131.2650</ARG_OF_PERICENTER><MEAN_ANOMALY>229.1927</MEAN_ANOMALY></meanElements><tleParameters><EPHEMERIS_TYPE>0</EPHEMERIS_TYPE><CLASSIFICATION_TYPE>U</CLASSIFICATION_TYPE><NORAD_CAT_ID>25159</NORAD_CAT_ID><ELEMENT_SET_NO>999</ELEMENT_SET_NO><REV_AT_EPOCH>40434</REV_AT_EPOCH><BSTAR>.9651E-3</BSTAR><MEAN_MOTION_DOT>.2602E-4</MEAN_MOTION_DOT><MEAN_MOTION_DDOT>0</MEAN_MOTION_DDOT></tleParameters></data></segment></body></omm>
<omm id="CCSDS_OMM_VERS" version="2.0">
<header><CREATION_DATE/><ORIGINATOR/></header><body><segment><metadata><OBJECT_NAME>ORBCOMM FM17</OBJECT_NAME><OBJECT_ID>1998-046A</OBJECT_ID><CENTER_NAME>EARTH</CENTER_NAME><REF_FRAME>TEME</REF_FRAME><TIME_SYSTEM>UTC</TIME_SYSTEM><MEAN_ELEMENT_THEORY>SGP4</MEAN_ELEMENT_THEORY></metadata><data><meanElements><EPOCH>2025-01-29T13:37:03.218304</EPOCH><MEAN_MOTION>14.34583791</MEAN_MOTION><ECCENTRICITY>.0003276</ECCENTRICITY><INCLINATION>44.9921</INCLINATION><RA_OF_ASC_NODE>191.5998</RA_OF_ASC_NODE><ARG_OF_PERICENTER>218.0695</ARG_OF_PERICENTER><MEAN_ANOMALY>141.9921</MEAN_ANOMALY></meanElements><tleParameters><EPHEMERIS_TYPE>0</EPHEMERIS_TYPE><CLASSIFICATION_TYPE>U</CLASSIFICATION_TYPE><NORAD_CAT_ID>25413</NORAD_CAT_ID><ELEMENT_SET_NO>999</ELEMENT_SET_NO><REV_AT_EPOCH>38326</REV_AT_EPOCH><BSTAR>.86485E-3</BSTAR><MEAN_MOTION_DOT>.2325E-4</MEAN_MOTION_DOT><MEAN_MOTION_DDOT>0</MEAN_MOTION_DDOT></tleParameters></data></segment></body></omm>
<omm id="CCSDS_OMM_VERS" version="2.0">
<header><CREATION_DATE/><ORIGINATOR/></header><body><segment><metadata><OBJECT_NAME>ORBCOMM FM18</OBJECT_NAME><OBJECT_ID>1998-046B</OBJECT_ID><CENTER_NAME>EARTH</CENTER_NAME><REF_FRAME>TEME</REF_FRAME><TIME_SYSTEM>UTC</TIME_SYSTEM><MEAN_ELEMENT_THEORY>SGP4</MEAN_ELEMENT_THEORY></metadata><data><meanElements><EPOCH>2025-01-29T10:17:01.542912</EPOCH><MEAN_MOTION>14.37845650</MEAN_MOTION><ECCENTRICITY>.0006034</ECCENTRICITY><INCLINATION>44.9925</INCLINATION><RA_OF_ASC_NODE>113.2672</RA_OF_ASC_NODE><ARG_OF_PERICENTER>282.3457</ARG_OF_PERICENTER><MEAN_ANOMALY>77.6715</MEAN_ANOMALY></meanElements><tleParameters><EPHEMERIS_TYPE>0</EPHEMERIS_TYPE><CLASSIFICATION_TYPE>U</CLASSIFICATION_TYPE><NORAD_CAT_ID>25414</NORAD_CAT_ID><ELEMENT_SET_NO>999</ELEMENT_SET_NO><REV_AT_EPOCH>38427</REV_AT_EPOCH><BSTAR>.10767E-2</BSTAR><MEAN_MOTION_DOT>.3136E-4</MEAN_MOTION_DOT><MEAN_MOTION_DDOT>0</MEAN_MOTION_DDOT></tleParameters></data></segment></body></omm>
<omm id="CCSDS_OMM_VERS" version="2.0">
<header><CREATION_DATE/><ORIGINATOR/></header><body><segment><metadata><OBJECT_NAME>ORBCOMM FM19</OBJECT_NAME><OBJECT_ID>1998-046C</OBJECT_ID><CENTER_NAME>EARTH</CENTER_NAME><REF_FRAME>TEME</REF_FRAME><TIME_SYSTEM>UTC</TIME_SYSTEM><MEAN_ELEMENT_THEORY>SGP4</MEAN_ELEMENT_THEORY></metadata><data><meanElements><EPOCH>2025-01-29T14:14:00.465216</EPOCH><MEAN_MOTION>14.37658197</MEAN_MOTION><ECCENTRICITY>.0005052</ECCENTRICITY><INCLINATION>44.9936</INCLINATION><RA_OF_ASC_NODE>114.2690</RA_OF_ASC_NODE><ARG_OF_PERICENTER>273.1603</ARG_OF_PERICENTER><MEAN_ANOMALY>231.2668</MEAN_ANOMALY></meanElements><tleParameters><EPHEMERIS_TYPE>0</EPHEMERIS_TYPE><CLASSIFICATION_TYPE>U</CLASSIFICATION_TYPE><NORAD_CAT_ID>25415</NORAD_CAT_ID><ELEMENT_SET_NO>999</ELEMENT_SET_NO><REV_AT_EPOCH>38425</REV_AT_EPOCH><BSTAR>.10144E-2</BSTAR><MEAN_MOTION_DOT>.2935E-4</MEAN_MOTION_DOT><MEAN_MOTION_DDOT>0</MEAN_MOTION_DDOT></tleParameters></data></segment></body></omm>

</ndm>
